start=new Date('2022-05-19T00:00:00.000Z').valueOf();
sats=[{"MEAN_MOTION":"15.06393867","ELEMENT_SET_NO":"999","SITE":"AFETR","OBJECT_TYPE":"PAYLOAD","GP_ID":"203915482","PERIAPSIS":"545.941","MEAN_MOTION_DOT":"0.00001107","REF_FRAME":"TEME","SEMIMAJOR_AXIS":"6925.367","LAUNCH_DATE":"2020-06-04","APOAPSIS":"548.524","CENTER_NAME":"EARTH","FILE":"3452661","MEAN_ELEMENT_THEORY":"SGP4","REV_AT_EPOCH":"10887","TIME_SYSTEM":"UTC","RCS_SIZE":"LARGE","NORAD_CAT_ID":"45693","ECCENTRICITY":"0.00018650","EPOCH":"2022-05-19T02:51:15.186528","RA_OF_ASC_NODE":"179.1379","ARG_OF_PERICENTER":"61.1243","TLE_LINE2":"2 45693  53.0548 179.1379 0001865  61.1243 298.9933 15.06393867108873","MEAN_MOTION_DDOT":"0.0000000000000","DECAY_DATE":null,"OBJECT_NAME":"STARLINK-1417","CLASSIFICATION_TYPE":"U","OBJECT_ID":"2020-035AN","INCLINATION":"53.0548","BSTAR":"0.00009322200000","EPHEMERIS_TYPE":"0","COUNTRY_CODE":"US","PERIOD":"95.593","TLE_LINE1":"1 45693U 20035AN  22139.11892577  .00001107  00000-0  93222-4 0  9995","MEAN_ANOMALY":"298.9933"},{"CLASSIFICATION_TYPE":"U","OBJECT_ID":"2020-035AP","INCLINATION":"53.0538","BSTAR":"0.00007610800000","EPHEMERIS_TYPE":"0","COUNTRY_CODE":"US","TLE_LINE1":"1 45694U 20035AP  22138.39647680  .00000852  00000-0  76108-4 0  9998","PERIOD":"95.593","MEAN_ANOMALY":"304.2340","ECCENTRICITY":"0.00017820","EPOCH":"2022-05-18T09:30:55.595520","RA_OF_ASC_NODE":"182.3649","ARG_OF_PERICENTER":"55.8818","MEAN_MOTION_DDOT":"0.0000000000000","TLE_LINE2":"2 45694  53.0538 182.3649 0001782  55.8818 304.2340 15.06393772109166","DECAY_DATE":null,"OBJECT_NAME":"STARLINK-1419","CENTER_NAME":"EARTH","FILE":"3451871","MEAN_ELEMENT_THEORY":"SGP4","REV_AT_EPOCH":"10916","TIME_SYSTEM":"UTC","RCS_SIZE":"LARGE","NORAD_CAT_ID":"45694","MEAN_MOTION":"15.06393772","ELEMENT_SET_NO":"999","SITE":"AFETR","OBJECT_TYPE":"PAYLOAD","GP_ID":"203869500","PERIAPSIS":"545.999","MEAN_MOTION_DOT":"0.00000852","REF_FRAME":"TEME","SEMIMAJOR_AXIS":"6925.368","LAUNCH_DATE":"2020-06-04","APOAPSIS":"548.467"},{"EPHEMERIS_TYPE":"0","COUNTRY_CODE":"US","TLE_LINE1":"1 45695U 20035AQ  22138.78902549  .00001559  00000-0  12351-3 0  9994","PERIOD":"95.592","MEAN_ANOMALY":"313.4712","CLASSIFICATION_TYPE":"U","OBJECT_ID":"2020-035AQ","INCLINATION":"53.0548","BSTAR":"0.00012351000000","MEAN_MOTION_DDOT":"0.0000000000000","TLE_LINE2":"2 45695  53.0548 160.6010 0002033  46.6446 313.4712 15.06405316109516","DECAY_DATE":null,"OBJECT_NAME":"STARLINK-1420","ECCENTRICITY":"0.00020330","EPOCH":"2022-05-18T18:56:11.802336","RA_OF_ASC_NODE":"160.6010","ARG_OF_PERICENTER":"46.6446","REV_AT_EPOCH":"10951","TIME_SYSTEM":"UTC","RCS_SIZE":"LARGE","NORAD_CAT_ID":"45695","CENTER_NAME":"EARTH","FILE":"3452356","MEAN_ELEMENT_THEORY":"SGP4","GP_ID":"203903175","PERIAPSIS":"545.789","MEAN_MOTION_DOT":"0.00001559","REF_FRAME":"TEME","SEMIMAJOR_AXIS":"6925.332","APOAPSIS":"548.605","LAUNCH_DATE":"2020-06-04","MEAN_MOTION":"15.06405316","ELEMENT_SET_NO":"999","SITE":"AFETR","OBJECT_TYPE":"PAYLOAD"},{"OBJECT_TYPE":"PAYLOAD","SITE":"AFETR","ELEMENT_SET_NO":"999","MEAN_MOTION":"15.06401848","APOAPSIS":"548.743","LAUNCH_DATE":"2020-06-04","REF_FRAME":"TEME","SEMIMAJOR_AXIS":"6925.343","GP_ID":"203870501","MEAN_MOTION_DOT":"0.00002484","PERIAPSIS":"545.673","MEAN_ELEMENT_THEORY":"SGP4","FILE":"3451871","CENTER_NAME":"EARTH","NORAD_CAT_ID":"45696","TIME_SYSTEM":"UTC","RCS_SIZE":"LARGE","REV_AT_EPOCH":"10916","ARG_OF_PERICENTER":"41.3424","RA_OF_ASC_NODE":"182.3532","EPOCH":"2022-05-18T09:36:14.344992","ECCENTRICITY":"0.00022170","DECAY_DATE":null,"OBJECT_NAME":"STARLINK-1422","MEAN_MOTION_DDOT":"0.0000000000000","TLE_LINE2":"2 45696  53.0540 182.3532 0002217  41.3424 318.7733 15.06401848109169","BSTAR":"0.00018559000000","INCLINATION":"53.0540","CLASSIFICATION_TYPE":"U","OBJECT_ID":"2020-035AR","MEAN_ANOMALY":"318.7733","COUNTRY_CODE":"US","TLE_LINE1":"1 45696U 20035AR  22138.40016603  .00002484  00000-0  18559-3 0  9995","PERIOD":"95.592","EPHEMERIS_TYPE":"0"},{"MEAN_MOTION":"15.06400888","ELEMENT_SET_NO":"999","SITE":"AFETR","OBJECT_TYPE":"PAYLOAD","GP_ID":"203902174","MEAN_MOTION_DOT":"0.00000843","PERIAPSIS":"546.013","REF_FRAME":"TEME","SEMIMAJOR_AXIS":"6925.346","LAUNCH_DATE":"2020-06-04","APOAPSIS":"548.408","CENTER_NAME":"EARTH","FILE":"3452356","MEAN_ELEMENT_THEORY":"SGP4","REV_AT_EPOCH":"10951","TIME_SYSTEM":"UTC","RCS_SIZE":"LARGE","NORAD_CAT_ID":"45697","ECCENTRICITY":"0.00017290","EPOCH":"2022-05-18T18:34:58.355328","RA_OF_ASC_NODE":"160.6876","ARG_OF_PERICENTER":"56.2382","TLE_LINE2":"2 45697  53.0553 160.6876 0001729  56.2382 303.8772 15.06400888109519","MEAN_MOTION_DDOT":"0.0000000000000","DECAY_DATE":null,"OBJECT_NAME":"STARLINK-1351","CLASSIFICATION_TYPE":"U","OBJECT_ID":"2020-035AS","INCLINATION":"53.0553","BSTAR":"0.00007545600000","EPHEMERIS_TYPE":"0","COUNTRY_CODE":"US","TLE_LINE1":"1 45697U 20035AS  22138.77428652  .00000843  00000-0  75456-4 0  9994","PERIOD":"95.592","MEAN_ANOMALY":"303.8772"},{"SITE":"AFETR","OBJECT_TYPE":"PAYLOAD","MEAN_MOTION":"15.06402623","ELEMENT_SET_NO":"999","SEMIMAJOR_AXIS":"6925.341","REF_FRAME":"TEME","LAUNCH_DATE":"2020-06-04","APOAPSIS":"548.339","MEAN_MOTION_DOT":"0.00001565","PERIAPSIS":"546.072","GP_ID":"203902424","FILE":"3452356","MEAN_ELEMENT_THEORY":"SGP4","CENTER_NAME":"EARTH","RCS_SIZE":"LARGE","TIME_SYSTEM":"UTC","NORAD_CAT_ID":"45698","REV_AT_EPOCH":"10951","RA_OF_ASC_NODE":"160.7355","ARG_OF_PERICENTER":"47.1050","ECCENTRICITY":"0.00016370","EPOCH":"2022-05-18T18:19:02.659872","OBJECT_NAME":"STARLINK-1370","DECAY_DATE":null,"MEAN_MOTION_DDOT":"0.0000000000000","TLE_LINE2":"2 45698  53.0541 160.7355 0001637  47.1050 313.0076 15.06402623109518","BSTAR":"0.00012393000000","OBJECT_ID":"2020-035AT","CLASSIFICATION_TYPE":"U","INCLINATION":"53.0541","PERIOD":"95.592","TLE_LINE1":"1 45698U 20035AT  22138.76322523  .00001565  00000-0  12393-3 0  9996","COUNTRY_CODE":"US","MEAN_ANOMALY":"313.0076","EPHEMERIS_TYPE":"0"},{"MEAN_MOTION":"15.06406128","ELEMENT_SET_NO":"999","SITE":"AFETR","OBJECT_TYPE":"PAYLOAD","MEAN_MOTION_DOT":"-0.00000420","PERIAPSIS":"546.128","GP_ID":"203903675","SEMIMAJOR_AXIS":"6925.330","REF_FRAME":"TEME","LAUNCH_DATE":"2020-06-04","APOAPSIS":"548.262","CENTER_NAME":"EARTH","FILE":"3452356","MEAN_ELEMENT_THEORY":"SGP4","REV_AT_EPOCH":"10950","RCS_SIZE":"LARGE","TIME_SYSTEM":"UTC","NORAD_CAT_ID":"45699","ECCENTRICITY":"0.00015410","EPOCH":"2022-05-18T18:03:07.828416","RA_OF_ASC_NODE":"160.7914","ARG_OF_PERICENTER":"65.8571","TLE_LINE2":"2 45699  53.0558 160.7914 0001541  65.8571 294.2579 15.06406128109508","MEAN_MOTION_DDOT":"0.0000000000000","OBJECT_NAME":"STARLINK-1398","DECAY_DATE":null,"OBJECT_ID":"2020-035AU","CLASSIFICATION_TYPE":"U","INCLINATION":"53.0558","BSTAR":"-0.00000930760000","EPHEMERIS_TYPE":"0","PERIOD":"95.592","TLE_LINE1":"1 45699U 20035AU  22138.75217394 -.00000420  00000-0 -93076-5 0  9995","COUNTRY_CODE":"US","MEAN_ANOMALY":"294.2579"},{"GP_ID":"203903925","MEAN_MOTION_DOT":"0.00000620","PERIAPSIS":"546.162","LAUNCH_DATE":"2020-06-04","APOAPSIS":"548.330","REF_FRAME":"TEME","SEMIMAJOR_AXIS":"6925.381","ELEMENT_SET_NO":"999","MEAN_MOTION":"15.06389435","OBJECT_TYPE":"PAYLOAD","SITE":"AFETR","REV_AT_EPOCH":"10950","NORAD_CAT_ID":"45700","TIME_SYSTEM":"UTC","RCS_SIZE":"LARGE","CENTER_NAME":"EARTH","MEAN_ELEMENT_THEORY":"SGP4","FILE":"3452356","TLE_LINE2":"2 45700  53.0517 160.7942 0001565  67.8933 292.2222 15.06389435109501","MEAN_MOTION_DDOT":"0.0000000000000","DECAY_DATE":null,"OBJECT_NAME":"STARLINK-1400","EPOCH":"2022-05-18T17:57:50.051808","ECCENTRICITY":"0.00015650","ARG_OF_PERICENTER":"67.8933","RA_OF_ASC_NODE":"160.7942","EPHEMERIS_TYPE":"0","MEAN_ANOMALY":"292.2222","COUNTRY_CODE":"US","TLE_LINE1":"1 45700U 20035AV  22138.74849597  .00000620  00000-0  60524-4 0  9994","PERIOD":"95.593","INCLINATION":"53.0517","CLASSIFICATION_TYPE":"U","OBJECT_ID":"2020-035AV","BSTAR":"0.00006052400000"},{"EPHEMERIS_TYPE":"0","COUNTRY_CODE":"US","TLE_LINE1":"1 45701U 20035AW  22138.77798489  .00000976  00000-0  84443-4 0  9991","PERIOD":"95.592","MEAN_ANOMALY":"314.4668","CLASSIFICATION_TYPE":"U","OBJECT_ID":"2020-035AW","INCLINATION":"53.0551","BSTAR":"0.00008444300000","TLE_LINE2":"2 45701  53.0551 160.6589 0002086  45.6492 314.4668 15.06398332109506","MEAN_MOTION_DDOT":"0.0000000000000","DECAY_DATE":null,"OBJECT_NAME":"STARLINK-1403","ECCENTRICITY":"0.00020860","EPOCH":"2022-05-18T18:40:17.894496","RA_OF_ASC_NODE":"160.6589","ARG_OF_PERICENTER":"45.6492","REV_AT_EPOCH":"10950","TIME_SYSTEM":"UTC","RCS_SIZE":"LARGE","NORAD_CAT_ID":"45701","CENTER_NAME":"EARTH","FILE":"3452356","MEAN_ELEMENT_THEORY":"SGP4","GP_ID":"203902674","MEAN_MOTION_DOT":"0.00000976","PERIAPSIS":"545.774","REF_FRAME":"TEME","SEMIMAJOR_AXIS":"6925.354","LAUNCH_DATE":"2020-06-04","APOAPSIS":"548.663","MEAN_MOTION":"15.06398332","ELEMENT_SET_NO":"999","SITE":"AFETR","OBJECT_TYPE":"PAYLOAD"},{"DECAY_DATE":null,"OBJECT_NAME":"STARLINK-1405","MEAN_MOTION_DDOT":"0.0000000000000","TLE_LINE2":"2 45702  53.0543 160.7411 0001902  45.0789 315.0354 15.06401887109501","ARG_OF_PERICENTER":"45.0789","RA_OF_ASC_NODE":"160.7411","EPOCH":"2022-05-18T18:13:44.107392","ECCENTRICITY":"0.00019020","MEAN_ANOMALY":"315.0354","COUNTRY_CODE":"US","PERIOD":"95.592","TLE_LINE1":"1 45702U 20035AX  22138.75953828  .00001190  00000-0  98794-4 0  9993","EPHEMERIS_TYPE":"0","BSTAR":"0.00009879400000","INCLINATION":"53.0543","CLASSIFICATION_TYPE":"U","OBJECT_ID":"2020-035AX","APOAPSIS":"548.525","LAUNCH_DATE":"2020-06-04","REF_FRAME":"TEME","SEMIMAJOR_AXIS":"6925.343","GP_ID":"203902924","MEAN_MOTION_DOT":"0.00001190","PERIAPSIS":"545.891","OBJECT_TYPE":"PAYLOAD","SITE":"AFETR","ELEMENT_SET_NO":"999","MEAN_MOTION":"15.06401887","NORAD_CAT_ID":"45702","TIME_SYSTEM":"UTC","RCS_SIZE":"LARGE","REV_AT_EPOCH":"10950","MEAN_ELEMENT_THEORY":"SGP4","FILE":"3452356","CENTER_NAME":"EARTH"}];
